{"type":"FeatureCollection","name":"Vietnam provinces, one simplified drawing","features":[{"type":"Feature","properties":{"ma":"01","name":"Hà Nội"},"geometry":{"type":"Polygon","coordinates":[[[105.921,21.328],[105.941,21.289],[105.917,21.192],[105.928,21.128],[106.011,21.046],[106.005,20.991],[105.913,20.966],[105.897,20.907],[105.912,20.84],[105.957,20.787],[105.968,20.732],[106.007,20.713],[105.921,20.678],[105.817,20.647],[105.786,20.568],[105.754,20.601],[105.679,20.638],[105.613,20.761],[105.532,20.815],[105.508,20.846],[105.531,20.916],[105.505,20.988],[105.465,21.011],[105.376,21.022],[105.308,21.012],[105.285,21.054],[105.307,21.126],[105.285,21.192],[105.343,21.238],[105.353,21.302],[105.415,21.307],[105.456,21.209],[105.514,21.168],[105.657,21.16],[105.763,21.106],[105.781,21.179],[105.766,21.264],[105.773,21.363],[105.848,21.364],[105.921,21.328]]]}},{"type":"Feature","properties":{"ma":"02","name":"Hà Giang"},"geometry":{"type":"Polygon","coordinates":[[[104.848,22.171],[104.77,22.181],[104.689,22.264],[104.628,22.257],[104.594,22.24],[104.594,22.331],[104.55,22.37],[104.482,22.406],[104.441,22.554],[104.473,22.594],[104.423,22.651],[104.382,22.662],[104.362,22.693],[104.449,22.745],[104.553,22.837],[104.579,22.809],[104.663,22.811],[104.728,22.84],[104.775,22.896],[104.823,22.924],[104.798,23.085],[104.861,23.119],[104.87,23.163],[104.945,23.16],[104.981,23.19],[105.06,23.233],[105.217,23.265],[105.236,23.32],[105.28,23.359],[105.332,23.318],[105.389,23.276],[105.473,23.195],[105.517,23.168],[105.535,23.099],[105.498,23.025],[105.433,23.0],[105.359,22.915],[105.302,22.876],[105.451,22.775],[105.489,22.73],[105.52,22.663],[105.568,22.592],[105.501,22.582],[105.343,22.601],[105.197,22.648],[105.135,22.525],[105.082,22.46],[105.048,22.357],[104.957,22.353],[104.93,22.267],[104.848,22.171]]]}},{"type":"Feature","properties":{"ma":"04","name":"Cao Bằng"},"geometry":{"type":"Polygon","coordinates":[[[105.535,23.099],[105.566,23.054],[105.691,23.044],[105.755,23.006],[105.853,22.904],[105.887,22.93],[105.945,22.927],[106.0,22.976],[106.078,22.981],[106.17,22.967],[106.202,22.947],[106.234,22.864],[106.316,22.854],[106.458,22.889],[106.488,22.926],[106.581,22.895],[106.61,22.852],[106.668,22.868],[106.732,22.801],[106.79,22.797],[106.747,22.745],[106.735,22.696],[106.697,22.631],[106.681,22.579],[106.608,22.61],[106.569,22.575],[106.533,22.403],[106.496,22.385],[106.398,22.379],[106.286,22.441],[106.226,22.435],[106.193,22.406],[106.138,22.432],[106.132,22.48],[106.108,22.531],[105.996,22.525],[105.909,22.48],[105.843,22.482],[105.816,22.505],[105.762,22.631],[105.777,22.706],[105.724,22.724],[105.648,22.678],[105.568,22.592],[105.52,22.663],[105.489,22.73],[105.451,22.775],[105.303,22.855],[105.359,22.915],[105.433,23.0],[105.498,23.025],[105.51,23.087],[105.535,23.099]]]}},{"type":"Feature","properties":{"ma":"06","name":"Bắc Kạn"},"geometry":{"type":"Polygon","coordinates":[[[105.558,21.95],[105.545,21.997],[105.509,22.055],[105.489,22.155],[105.495,22.268],[105.52,22.34],[105.589,22.43],[105.609,22.469],[105.568,22.592],[105.648,22.678],[105.724,22.724],[105.777,22.706],[105.762,22.631],[105.816,22.505],[105.843,22.482],[105.909,22.48],[105.996,22.525],[106.083,22.542],[106.132,22.48],[106.138,22.432],[106.193,22.406],[106.22,22.321],[106.259,22.263],[106.24,22.199],[106.191,22.112],[106.133,22.069],[106.113,21.949],[106.026,21.922],[106.002,21.888],[105.899,21.826],[105.839,21.814],[105.801,21.788],[105.778,21.883],[105.773,21.978],[105.718,22.03],[105.627,22.01],[105.585,21.957],[105.558,21.95]]]}},{"type":"Feature","properties":{"ma":"08","name":"Tuyên Quang"},"geometry":{"type":"Polygon","coordinates":[[[105.568,22.592],[105.607,22.517],[105.589,22.43],[105.52,22.34],[105.495,22.268],[105.489,22.155],[105.509,22.055],[105.545,21.997],[105.558,21.95],[105.534,21.867],[105.518,21.672],[105.522,21.608],[105.577,21.544],[105.539,21.521],[105.46,21.497],[105.393,21.495],[105.318,21.515],[105.233,21.618],[105.176,21.667],[105.112,21.704],[105.086,21.751],[105.101,21.796],[105.076,21.838],[104.997,21.924],[104.998,21.974],[104.884,22.089],[104.848,22.171],[104.93,22.267],[104.94,22.333],[105.02,22.342],[105.082,22.46],[105.135,22.525],[105.17,22.637],[105.343,22.601],[105.501,22.582],[105.568,22.592]]]}},{"type":"Feature","properties":{"ma":"10","name":"Lào Cai"},"geometry":{"type":"Polygon","coordinates":[[[103.55,22.648],[103.59,22.768],[103.647,22.799],[103.726,22.716],[103.794,22.66],[103.867,22.576],[103.917,22.534],[103.96,22.507],[103.986,22.57],[104.007,22.63],[104.024,22.72],[104.074,22.783],[104.213,22.824],[104.228,22.784],[104.249,22.728],[104.34,22.686],[104.382,22.662],[104.423,22.651],[104.473,22.594],[104.441,22.554],[104.482,22.406],[104.55,22.37],[104.594,22.331],[104.594,22.24],[104.628,22.257],[104.646,22.173],[104.609,22.154],[104.554,22.095],[104.475,22.144],[104.399,22.135],[104.381,22.1],[104.44,21.988],[104.436,21.934],[104.394,21.898],[104.351,21.906],[104.233,21.96],[104.205,21.892],[104.132,21.915],[104.069,21.921],[103.984,21.974],[103.913,21.854],[103.952,21.792],[103.925,21.72],[103.878,21.709],[103.834,21.733],[103.71,21.862],[103.648,22.004],[103.605,22.042],[103.585,22.118],[103.623,22.18],[103.7,22.216],[103.771,22.287],[103.801,22.363],[103.748,22.419],[103.653,22.417],[103.588,22.452],[103.611,22.518],[103.603,22.579],[103.55,22.648]]]}},{"type":"Feature","properties":{"ma":"11","name":"Điện Biên"},"geometry":{"type":"Polygon","coordinates":[[[103.226,20.827],[103.147,20.846],[103.116,20.868],[103.069,20.931],[103.015,21.041],[102.952,21.069],[102.915,21.158],[102.887,21.226],[102.851,21.252],[102.801,21.255],[102.828,21.285],[102.875,21.305],[102.884,21.388],[102.916,21.439],[102.85,21.426],[102.895,21.495],[102.974,21.575],[102.96,21.633],[102.962,21.701],[102.947,21.737],[102.864,21.706],[102.826,21.821],[102.787,21.74],[102.753,21.681],[102.721,21.661],[102.651,21.658],[102.629,21.73],[102.634,21.788],[102.591,21.901],[102.56,21.925],[102.478,21.958],[102.466,21.996],[102.422,22.062],[102.389,22.117],[102.287,22.2],[102.226,22.229],[102.154,22.305],[102.119,22.397],[102.165,22.425],[102.218,22.411],[102.253,22.495],[102.325,22.566],[102.379,22.576],[102.458,22.562],[102.508,22.567],[102.568,22.524],[102.645,22.436],[102.701,22.415],[102.777,22.36],[102.818,22.298],[102.826,22.232],[102.908,22.204],[102.922,22.156],[103.041,22.148],[103.095,22.123],[103.14,22.085],[103.264,22.048],[103.324,22.15],[103.401,22.137],[103.416,22.081],[103.459,22.031],[103.498,21.967],[103.551,21.888],[103.557,21.754],[103.569,21.674],[103.561,21.611],[103.527,21.562],[103.466,21.505],[103.436,21.444],[103.378,21.406],[103.402,21.333],[103.439,21.305],[103.44,21.2],[103.422,21.16],[103.437,21.073],[103.379,21.053],[103.318,21.081],[103.291,21.025],[103.244,20.963],[103.229,20.891],[103.226,20.827]]]}},{"type":"Feature","properties":{"ma":"12","name":"Lai Châu"},"geometry":{"type":"Polygon","coordinates":[[[103.57,22.034],[103.541,21.999],[103.551,21.888],[103.498,21.967],[103.462,21.99],[103.416,22.081],[103.401,22.137],[103.361,22.158],[103.267,22.081],[103.178,22.088],[103.095,22.123],[103.041,22.148],[102.952,22.136],[102.908,22.204],[102.845,22.205],[102.818,22.298],[102.777,22.36],[102.701,22.415],[102.645,22.436],[102.568,22.524],[102.508,22.567],[102.458,22.562],[102.379,22.576],[102.325,22.566],[102.384,22.629],[102.357,22.659],[102.395,22.681],[102.443,22.765],[102.515,22.746],[102.535,22.696],[102.586,22.715],[102.613,22.691],[102.693,22.671],[102.752,22.625],[102.813,22.608],[102.845,22.586],[102.894,22.487],[102.99,22.438],[103.045,22.441],[103.142,22.538],[103.13,22.578],[103.229,22.656],[103.309,22.787],[103.401,22.738],[103.405,22.689],[103.448,22.618],[103.504,22.581],[103.55,22.648],[103.603,22.579],[103.611,22.518],[103.579,22.482],[103.653,22.417],[103.748,22.419],[103.801,22.363],[103.771,22.287],[103.7,22.216],[103.623,22.18],[103.585,22.118],[103.57,22.034]]]}},{"type":"Feature","properties":{"ma":"14","name":"Sơn La"},"geometry":{"type":"Polygon","coordinates":[[[103.551,21.888],[103.536,21.964],[103.57,22.034],[103.648,22.004],[103.71,21.862],[103.834,21.733],[103.878,21.709],[103.925,21.72],[104.017,21.685],[104.17,21.659],[104.233,21.67],[104.307,21.71],[104.349,21.67],[104.318,21.564],[104.311,21.496],[104.329,21.444],[104.356,21.417],[104.445,21.368],[104.559,21.404],[104.604,21.414],[104.69,21.381],[104.748,21.384],[104.779,21.335],[104.828,21.329],[104.866,21.25],[104.872,21.149],[104.908,21.102],[104.882,21.061],[104.913,20.964],[105.013,20.86],[105.087,20.813],[105.077,20.772],[104.974,20.73],[104.858,20.728],[104.839,20.697],[104.844,20.626],[104.777,20.575],[104.728,20.585],[104.644,20.642],[104.6,20.661],[104.493,20.702],[104.452,20.764],[104.39,20.771],[104.336,20.82],[104.295,20.879],[104.26,20.898],[104.195,20.929],[104.093,20.962],[104.01,20.908],[103.952,20.901],[103.776,20.834],[103.753,20.78],[103.707,20.722],[103.715,20.672],[103.666,20.659],[103.578,20.733],[103.497,20.749],[103.427,20.821],[103.363,20.787],[103.263,20.826],[103.229,20.891],[103.244,20.963],[103.291,21.025],[103.318,21.081],[103.379,21.053],[103.437,21.073],[103.422,21.16],[103.44,21.2],[103.45,21.266],[103.402,21.333],[103.378,21.406],[103.436,21.444],[103.466,21.505],[103.527,21.562],[103.561,21.611],[103.569,21.674],[103.557,21.754],[103.551,21.888]]]}},{"type":"Feature","properties":{"ma":"15","name":"Yên Bái"},"geometry":{"type":"Polygon","coordinates":[[[105.112,21.704],[105.073,21.678],[104.998,21.661],[104.923,21.621],[104.891,21.567],[104.92,21.398],[104.895,21.365],[104.828,21.329],[104.779,21.335],[104.748,21.384],[104.69,21.381],[104.604,21.414],[104.559,21.404],[104.491,21.366],[104.356,21.417],[104.329,21.444],[104.311,21.496],[104.318,21.564],[104.349,21.67],[104.307,21.71],[104.233,21.67],[104.17,21.659],[104.017,21.685],[103.925,21.72],[103.952,21.792],[103.913,21.854],[103.984,21.974],[104.069,21.921],[104.132,21.915],[104.205,21.892],[104.233,21.96],[104.351,21.906],[104.394,21.898],[104.436,21.934],[104.44,21.988],[104.381,22.1],[104.399,22.135],[104.475,22.144],[104.554,22.095],[104.609,22.154],[104.646,22.173],[104.628,22.257],[104.689,22.264],[104.77,22.181],[104.848,22.171],[104.884,22.089],[104.982,22.007],[104.997,21.924],[105.076,21.838],[105.101,21.796],[105.086,21.751],[105.112,21.704]]]}},{"type":"Feature","properties":{"ma":"17","name":"Hòa Bình"},"geometry":{"type":"Polygon","coordinates":[[[105.786,20.568],[105.809,20.493],[105.842,20.419],[105.771,20.442],[105.704,20.408],[105.716,20.335],[105.656,20.334],[105.601,20.377],[105.542,20.367],[105.455,20.385],[105.308,20.457],[105.213,20.518],[105.165,20.577],[105.067,20.575],[104.939,20.59],[104.844,20.626],[104.839,20.697],[104.858,20.728],[104.974,20.73],[105.077,20.772],[105.087,20.813],[105.013,20.86],[104.913,20.964],[104.881,21.023],[104.908,21.102],[104.942,21.054],[105.042,21.009],[105.115,20.95],[105.21,20.938],[105.296,20.916],[105.329,20.981],[105.308,21.012],[105.376,21.022],[105.465,21.011],[105.505,20.988],[105.531,20.916],[105.508,20.846],[105.532,20.815],[105.613,20.761],[105.679,20.638],[105.754,20.601],[105.786,20.568]]]}},{"type":"Feature","properties":{"ma":"19","name":"Thái Nguyên"},"geometry":{"type":"Polygon","coordinates":[[[105.921,21.328],[105.848,21.364],[105.773,21.363],[105.74,21.418],[105.637,21.489],[105.577,21.544],[105.522,21.608],[105.518,21.672],[105.534,21.867],[105.558,21.95],[105.627,22.01],[105.718,22.03],[105.773,21.978],[105.778,21.883],[105.801,21.788],[105.839,21.814],[105.899,21.826],[106.002,21.888],[106.026,21.922],[106.113,21.949],[106.117,21.898],[106.142,21.805],[106.181,21.786],[106.253,21.696],[106.209,21.632],[106.167,21.571],[106.144,21.621],[106.067,21.633],[106.039,21.608],[106.072,21.503],[106.051,21.434],[106.019,21.412],[105.971,21.408],[105.921,21.328]]]}},{"type":"Feature","properties":{"ma":"20","name":"Lạng Sơn"},"geometry":{"type":"Polygon","coordinates":[[[106.533,22.403],[106.556,22.332],[106.617,22.323],[106.663,22.223],[106.639,22.191],[106.672,22.093],[106.649,21.996],[106.675,21.962],[106.722,22.008],[106.781,21.976],[106.865,21.968],[106.921,21.917],[106.971,21.935],[107.021,21.892],[106.987,21.845],[107.065,21.796],[107.172,21.715],[107.213,21.705],[107.273,21.719],[107.303,21.688],[107.334,21.613],[107.241,21.556],[107.246,21.486],[107.242,21.437],[107.215,21.406],[107.128,21.371],[107.065,21.36],[107.024,21.376],[106.996,21.446],[106.922,21.445],[106.858,21.541],[106.839,21.593],[106.747,21.549],[106.682,21.599],[106.631,21.609],[106.56,21.587],[106.523,21.545],[106.49,21.47],[106.46,21.431],[106.399,21.411],[106.353,21.424],[106.292,21.477],[106.165,21.518],[106.167,21.571],[106.209,21.632],[106.256,21.678],[106.181,21.786],[106.142,21.805],[106.117,21.898],[106.113,21.949],[106.12,22.036],[106.191,22.112],[106.24,22.199],[106.259,22.263],[106.22,22.321],[106.193,22.406],[106.226,22.435],[106.286,22.441],[106.398,22.379],[106.496,22.385],[106.533,22.403]]]}},{"type":"Feature","properties":{"ma":"22","name":"Quảng Ninh"},"geometry":{"type":"MultiPolygon","coordinates":[[[[106.766,20.846],[106.806,20.807],[106.78,20.812],[106.748,20.861],[106.766,20.846]]],[[[107.345,20.888],[107.382,20.887],[107.389,20.866],[107.361,20.859],[107.345,20.888]]],[[[106.841,20.881],[106.886,20.796],[106.82,20.843],[106.771,20.858],[106.785,20.93],[106.825,20.915],[106.841,20.881]]],[[[107.478,20.814],[107.47,20.884],[107.517,20.895],[107.55,20.956],[107.478,20.814]]],[[[106.762,20.979],[106.76,20.947],[106.694,20.961],[106.693,20.986],[106.762,20.979]]],[[[107.792,20.992],[107.738,20.938],[107.759,20.983],[107.745,21.02],[107.792,20.992]]],[[[107.532,21.041],[107.529,20.951],[107.498,20.916],[107.395,20.897],[107.492,20.965],[107.504,21.021],[107.532,21.041]]],[[[107.581,21.118],[107.572,21.084],[107.522,21.058],[107.554,21.114],[107.581,21.118]]],[[[107.59,21.008],[107.567,21.017],[107.591,21.082],[107.632,21.111],[107.59,21.008]]],[[[107.809,21.347],[107.711,21.308],[107.726,21.324],[107.783,21.357],[107.809,21.347]]],[[[107.998,21.398],[107.841,21.349],[107.868,21.389],[107.998,21.404],[107.998,21.398]]],[[[106.651,21.017],[106.606,21.026],[106.478,21.053],[106.441,21.098],[106.495,21.131],[106.545,21.194],[106.76,21.162],[106.824,21.163],[106.964,21.198],[106.988,21.252],[106.999,21.315],[107.065,21.36],[107.128,21.371],[107.215,21.406],[107.242,21.437],[107.246,21.486],[107.225,21.527],[107.334,21.613],[107.41,21.646],[107.462,21.596],[107.509,21.582],[107.533,21.609],[107.613,21.606],[107.691,21.625],[107.745,21.657],[107.832,21.639],[107.855,21.601],[107.991,21.485],[107.929,21.443],[107.919,21.518],[107.862,21.53],[107.848,21.493],[107.784,21.524],[107.787,21.459],[107.748,21.411],[107.635,21.384],[107.608,21.335],[107.563,21.298],[107.534,21.346],[107.505,21.299],[107.415,21.328],[107.443,21.294],[107.367,21.273],[107.355,21.192],[107.375,21.116],[107.354,21.083],[107.374,21.028],[107.334,21.005],[107.246,21.002],[107.193,20.953],[107.149,20.931],[107.067,20.965],[107.095,21.0],[107.149,21.034],[107.057,21.014],[107.026,21.034],[107.017,20.958],[106.948,20.954],[106.874,20.997],[106.923,20.938],[106.943,20.904],[106.887,20.91],[106.833,20.938],[106.772,20.958],[106.817,20.969],[106.786,21.013],[106.731,21.03],[106.651,21.017]]],[[[106.948,20.87],[106.994,20.852],[107.043,20.832],[107.088,20.822],[107.036,20.767],[107.046,20.704],[106.997,20.753],[106.91,20.818],[106.948,20.87]]],[[[107.446,21.212],[107.452,21.272],[107.524,21.232],[107.603,21.219],[107.547,21.156],[107.471,21.096],[107.389,21.048],[107.403,21.127],[107.419,21.196],[107.446,21.212]]]]}},{"type":"Feature","properties":{"ma":"24","name":"Bắc Giang"},"geometry":{"type":"Polygon","coordinates":[[[105.945,21.248],[105.921,21.328],[105.971,21.408],[106.019,21.412],[106.051,21.434],[106.072,21.503],[106.039,21.608],[106.067,21.633],[106.144,21.621],[106.167,21.571],[106.165,21.518],[106.292,21.477],[106.353,21.424],[106.399,21.411],[106.46,21.431],[106.49,21.47],[106.523,21.545],[106.56,21.587],[106.631,21.609],[106.682,21.599],[106.747,21.549],[106.812,21.592],[106.858,21.541],[106.922,21.445],[106.996,21.446],[107.024,21.376],[107.065,21.36],[106.999,21.315],[106.988,21.252],[106.964,21.198],[106.824,21.163],[106.76,21.162],[106.545,21.194],[106.513,21.218],[106.458,21.233],[106.386,21.223],[106.33,21.188],[106.298,21.134],[106.214,21.182],[106.029,21.212],[105.945,21.248]]]}},{"type":"Feature","properties":{"ma":"25","name":"Phú Thọ"},"geometry":{"type":"Polygon","coordinates":[[[104.828,21.329],[104.895,21.365],[104.92,21.398],[104.888,21.523],[104.923,21.621],[104.998,21.661],[105.073,21.678],[105.112,21.704],[105.176,21.667],[105.233,21.618],[105.318,21.515],[105.344,21.434],[105.392,21.409],[105.451,21.323],[105.429,21.277],[105.353,21.302],[105.343,21.238],[105.285,21.192],[105.307,21.126],[105.285,21.054],[105.308,21.012],[105.329,20.981],[105.332,20.919],[105.21,20.938],[105.115,20.95],[105.042,21.009],[104.942,21.054],[104.908,21.102],[104.872,21.149],[104.866,21.25],[104.828,21.329]]]}},{"type":"Feature","properties":{"ma":"26","name":"Vĩnh Phúc"},"geometry":{"type":"Polygon","coordinates":[[[105.429,21.277],[105.458,21.3],[105.392,21.409],[105.344,21.434],[105.318,21.515],[105.393,21.495],[105.46,21.497],[105.539,21.521],[105.577,21.544],[105.637,21.489],[105.74,21.418],[105.773,21.363],[105.766,21.264],[105.781,21.179],[105.763,21.106],[105.657,21.16],[105.514,21.168],[105.456,21.209],[105.429,21.277]]]}},{"type":"Feature","properties":{"ma":"27","name":"Bắc Ninh"},"geometry":{"type":"Polygon","coordinates":[[[106.298,21.134],[106.314,21.071],[106.307,21.014],[106.279,20.991],[106.227,20.986],[106.153,20.998],[106.077,21.002],[106.005,20.991],[106.011,21.046],[105.928,21.128],[105.917,21.192],[105.945,21.248],[106.029,21.212],[106.214,21.182],[106.298,21.134]]]}},{"type":"Feature","properties":{"ma":"30","name":"Hải Dương"},"geometry":{"type":"Polygon","coordinates":[[[106.153,20.998],[106.227,20.986],[106.279,20.991],[106.307,21.014],[106.314,21.071],[106.298,21.134],[106.33,21.188],[106.386,21.223],[106.458,21.233],[106.513,21.218],[106.545,21.194],[106.495,21.131],[106.441,21.098],[106.478,21.053],[106.577,21.041],[106.586,20.964],[106.537,20.937],[106.497,20.861],[106.541,20.804],[106.461,20.721],[106.258,20.696],[106.191,20.76],[106.138,20.795],[106.122,20.832],[106.159,20.926],[106.153,20.998]]]}},{"type":"Feature","properties":{"ma":"31","name":"Hải Phòng"},"geometry":{"type":"Polygon","coordinates":[[[106.606,21.026],[106.651,21.017],[106.676,20.959],[106.756,20.939],[106.738,20.883],[106.753,20.826],[106.725,20.79],[106.788,20.731],[106.806,20.678],[106.768,20.714],[106.663,20.692],[106.703,20.66],[106.654,20.63],[106.593,20.647],[106.538,20.612],[106.47,20.601],[106.417,20.72],[106.535,20.783],[106.507,20.822],[106.535,20.889],[106.586,20.964],[106.606,21.026]]]}},{"type":"Feature","properties":{"ma":"33","name":"Hưng Yên"},"geometry":{"type":"Polygon","coordinates":[[[106.005,20.991],[106.077,21.002],[106.153,20.998],[106.159,20.926],[106.122,20.832],[106.138,20.795],[106.191,20.76],[106.258,20.696],[106.207,20.667],[106.139,20.667],[106.112,20.632],[106.06,20.617],[106.031,20.653],[106.03,20.709],[105.968,20.732],[105.957,20.787],[105.912,20.84],[105.924,20.887],[105.913,20.966],[106.005,20.991]]]}},{"type":"Feature","properties":{"ma":"34","name":"Thái Bình"},"geometry":{"type":"Polygon","coordinates":[[[106.185,20.491],[106.168,20.547],[106.136,20.576],[106.112,20.632],[106.139,20.667],[106.207,20.667],[106.258,20.696],[106.417,20.72],[106.448,20.628],[106.538,20.612],[106.593,20.647],[106.628,20.617],[106.518,20.542],[106.567,20.525],[106.58,20.478],[106.573,20.368],[106.592,20.275],[106.549,20.292],[106.503,20.3],[106.451,20.287],[106.349,20.364],[106.278,20.329],[106.273,20.406],[106.219,20.413],[106.215,20.474],[106.185,20.491]]]}},{"type":"Feature","properties":{"ma":"35","name":"Hà Nam"},"geometry":{"type":"Polygon","coordinates":[[[105.951,20.337],[105.902,20.363],[105.842,20.419],[105.809,20.493],[105.786,20.568],[105.817,20.647],[105.921,20.678],[105.987,20.687],[106.03,20.709],[106.031,20.653],[106.06,20.617],[106.112,20.632],[106.136,20.576],[106.168,20.547],[106.185,20.491],[106.071,20.484],[106.027,20.413],[105.969,20.419],[105.951,20.337]]]}},{"type":"Feature","properties":{"ma":"36","name":"Nam Định"},"geometry":{"type":"Polygon","coordinates":[[[106.503,20.3],[106.549,20.292],[106.57,20.232],[106.505,20.217],[106.395,20.205],[106.36,20.184],[106.305,20.108],[106.26,20.061],[106.161,19.984],[106.108,19.965],[106.114,20.033],[106.152,20.127],[106.155,20.217],[106.094,20.253],[105.964,20.282],[105.951,20.337],[105.953,20.392],[106.027,20.413],[106.071,20.484],[106.185,20.491],[106.219,20.413],[106.273,20.406],[106.265,20.345],[106.349,20.364],[106.451,20.287],[106.503,20.3]]]}},{"type":"Feature","properties":{"ma":"37","name":"Ninh Bình"},"geometry":{"type":"Polygon","coordinates":[[[106.114,20.033],[106.083,19.965],[106.034,19.996],[106.07,20.034],[106.05,20.066],[105.983,20.078],[105.919,20.119],[105.862,20.134],[105.755,20.196],[105.542,20.367],[105.601,20.377],[105.656,20.334],[105.695,20.32],[105.704,20.408],[105.771,20.442],[105.842,20.419],[105.902,20.363],[105.951,20.337],[105.964,20.282],[106.057,20.24],[106.155,20.217],[106.152,20.127],[106.114,20.033]]]}},{"type":"Feature","properties":{"ma":"38","name":"Thanh Hóa"},"geometry":{"type":"Polygon","coordinates":[[[106.034,19.996],[105.956,19.925],[105.957,19.876],[105.929,19.793],[105.867,19.773],[105.929,19.779],[105.896,19.721],[105.826,19.642],[105.808,19.461],[105.783,19.394],[105.813,19.307],[105.764,19.293],[105.699,19.302],[105.632,19.362],[105.586,19.388],[105.535,19.454],[105.437,19.469],[105.401,19.484],[105.357,19.54],[105.272,19.52],[105.262,19.619],[105.19,19.688],[105.147,19.757],[105.135,19.81],[105.18,19.891],[105.151,19.915],[105.063,19.941],[105.014,19.97],[104.945,19.992],[104.944,20.067],[104.905,20.135],[104.819,20.221],[104.691,20.196],[104.657,20.279],[104.68,20.341],[104.612,20.377],[104.576,20.414],[104.433,20.411],[104.359,20.439],[104.424,20.495],[104.446,20.535],[104.496,20.512],[104.543,20.535],[104.607,20.619],[104.644,20.642],[104.728,20.585],[104.777,20.575],[104.844,20.626],[104.939,20.59],[105.067,20.575],[105.137,20.59],[105.213,20.518],[105.308,20.457],[105.455,20.385],[105.542,20.367],[105.755,20.196],[105.862,20.134],[105.919,20.119],[105.983,20.078],[106.05,20.066],[106.07,20.034],[106.034,19.996]]]}},{"type":"Feature","properties":{"ma":"40","name":"Nghệ An"},"geometry":{"type":"Polygon","coordinates":[[[105.806,19.274],[105.772,19.236],[105.732,19.171],[105.737,19.108],[105.696,19.081],[105.644,19.065],[105.615,18.998],[105.629,18.922],[105.716,18.855],[105.689,18.826],[105.757,18.773],[105.751,18.662],[105.689,18.621],[105.662,18.57],[105.503,18.597],[105.412,18.588],[105.275,18.625],[105.17,18.619],[105.113,18.698],[104.99,18.733],[104.937,18.732],[104.9,18.77],[104.815,18.774],[104.722,18.792],[104.686,18.824],[104.544,18.907],[104.481,18.978],[104.401,18.993],[104.355,19.048],[104.303,19.069],[104.26,19.104],[104.211,19.101],[104.198,19.147],[104.147,19.183],[104.037,19.23],[103.972,19.225],[103.917,19.258],[103.893,19.294],[103.869,19.327],[103.921,19.353],[103.952,19.392],[104.038,19.414],[104.061,19.471],[104.072,19.559],[104.017,19.601],[103.998,19.652],[104.022,19.681],[104.089,19.651],[104.136,19.687],[104.23,19.707],[104.277,19.684],[104.342,19.682],[104.416,19.651],[104.506,19.603],[104.623,19.618],[104.654,19.698],[104.692,19.735],[104.736,19.746],[104.805,19.791],[104.817,19.849],[104.761,19.861],[104.781,19.909],[104.859,19.955],[104.945,19.992],[105.014,19.97],[105.063,19.941],[105.151,19.915],[105.18,19.891],[105.135,19.81],[105.147,19.757],[105.19,19.688],[105.262,19.619],[105.272,19.52],[105.318,19.546],[105.401,19.484],[105.437,19.469],[105.507,19.47],[105.586,19.388],[105.632,19.362],[105.699,19.302],[105.764,19.293],[105.806,19.274]]]}},{"type":"Feature","properties":{"ma":"42","name":"Hà Tĩnh"},"geometry":{"type":"Polygon","coordinates":[[[105.751,18.662],[105.767,18.756],[105.791,18.689],[105.827,18.594],[105.879,18.512],[105.915,18.473],[105.977,18.402],[106.098,18.29],[106.166,18.266],[106.271,18.204],[106.346,18.132],[106.306,18.1],[106.35,18.083],[106.435,18.124],[106.438,18.051],[106.519,17.957],[106.387,17.973],[106.301,17.913],[106.246,17.91],[106.138,17.929],[106.059,17.964],[106.043,18.024],[105.987,18.061],[105.927,18.071],[105.86,18.064],[105.737,18.023],[105.683,17.982],[105.603,17.97],[105.566,18.008],[105.552,18.048],[105.476,18.127],[105.451,18.193],[105.392,18.194],[105.368,18.15],[105.295,18.196],[105.293,18.253],[105.247,18.246],[105.157,18.32],[105.163,18.366],[105.091,18.426],[105.1,18.552],[105.129,18.599],[105.17,18.619],[105.275,18.625],[105.412,18.588],[105.503,18.597],[105.632,18.582],[105.694,18.601],[105.751,18.662]]]}},{"type":"Feature","properties":{"ma":"44","name":"Quảng Bình"},"geometry":{"type":"Polygon","coordinates":[[[106.519,17.957],[106.456,17.882],[106.49,17.702],[106.436,17.739],[106.375,17.765],[106.285,17.772],[106.346,17.747],[106.429,17.731],[106.383,17.719],[106.504,17.683],[106.615,17.518],[106.634,17.47],[106.764,17.336],[107.007,17.162],[106.903,17.1],[106.857,17.046],[106.817,16.979],[106.749,16.961],[106.589,16.972],[106.533,16.95],[106.497,16.964],[106.42,16.989],[106.387,17.047],[106.336,17.129],[106.307,17.177],[106.31,17.227],[106.285,17.285],[106.222,17.246],[106.02,17.394],[105.911,17.517],[105.846,17.598],[105.788,17.642],[105.735,17.664],[105.644,17.82],[105.605,17.854],[105.603,17.97],[105.683,17.982],[105.737,18.023],[105.86,18.064],[105.927,18.071],[105.987,18.061],[106.043,18.024],[106.059,17.964],[106.138,17.929],[106.246,17.91],[106.301,17.913],[106.349,17.967],[106.519,17.957]]]}},{"type":"Feature","properties":{"ma":"45","name":"Quảng Trị"},"geometry":{"type":"Polygon","coordinates":[[[107.067,16.291],[106.967,16.3],[106.951,16.336],[106.86,16.412],[106.865,16.504],[106.823,16.531],[106.798,16.479],[106.752,16.429],[106.693,16.428],[106.655,16.471],[106.64,16.521],[106.641,16.587],[106.573,16.613],[106.535,16.683],[106.533,16.95],[106.589,16.972],[106.749,16.961],[106.817,16.979],[106.857,17.046],[106.903,17.1],[107.007,17.162],[107.111,17.088],[107.122,17.019],[107.2,16.914],[107.142,16.875],[107.217,16.909],[107.412,16.75],[107.338,16.647],[107.269,16.6],[107.174,16.587],[107.108,16.554],[107.167,16.471],[107.125,16.412],[107.062,16.344],[107.067,16.291]]]}},{"type":"Feature","properties":{"ma":"46","name":"Thừa Thiên Huế"},"geometry":{"type":"Polygon","coordinates":[[[107.412,16.75],[107.497,16.689],[107.605,16.596],[107.474,16.653],[107.564,16.583],[107.608,16.545],[107.664,16.552],[107.673,16.497],[107.758,16.463],[107.826,16.374],[107.813,16.313],[107.897,16.279],[107.937,16.312],[107.945,16.357],[108.012,16.319],[108.043,16.346],[108.054,16.305],[108.094,16.236],[108.052,16.261],[108.201,16.212],[108.133,16.202],[108.041,16.221],[107.952,16.217],[107.921,16.18],[107.886,16.113],[107.856,16.087],[107.784,16.072],[107.738,16.018],[107.688,16.077],[107.598,16.056],[107.433,16.056],[107.327,16.057],[107.239,16.13],[107.155,16.166],[107.127,16.201],[107.116,16.255],[107.067,16.291],[107.062,16.344],[107.125,16.412],[107.167,16.471],[107.119,16.516],[107.174,16.587],[107.269,16.6],[107.338,16.647],[107.412,16.75]]]}},{"type":"Feature","properties":{"ma":"48","name":"Đà Nẵng"},"geometry":{"type":"MultiPolygon","coordinates":[[[[108.201,16.212],[108.155,16.171],[108.143,16.12],[108.197,16.071],[108.239,16.052],[108.197,16.003],[108.25,16.023],[108.247,16.124],[108.318,16.135],[108.265,16.107],[108.283,15.99],[108.183,15.997],[108.101,15.977],[108.016,16.003],[108.007,16.086],[107.934,16.079],[107.856,16.087],[107.886,16.113],[107.921,16.18],[107.952,16.217],[108.041,16.221],[108.133,16.202],[108.201,16.212]]],[[[108.542,15.926],[108.488,15.963],[108.508,15.975],[108.539,15.953],[108.542,15.926]]]]}},{"type":"Feature","properties":{"ma":"49","name":"Quảng Nam"},"geometry":{"type":"Polygon","coordinates":[[[108.283,15.99],[108.306,15.955],[108.388,15.898],[108.415,15.868],[108.423,15.806],[108.455,15.747],[108.618,15.529],[108.683,15.517],[108.622,15.475],[108.652,15.439],[108.698,15.49],[108.704,15.445],[108.762,15.396],[108.666,15.383],[108.486,15.325],[108.386,15.317],[108.336,15.285],[108.287,15.212],[108.326,15.086],[108.296,15.048],[108.216,15.066],[108.19,14.987],[108.139,14.956],[108.074,15.039],[108.074,15.121],[107.972,15.216],[107.928,15.23],[107.862,15.222],[107.776,15.296],[107.689,15.371],[107.65,15.399],[107.577,15.404],[107.494,15.42],[107.488,15.481],[107.447,15.509],[107.37,15.496],[107.316,15.589],[107.249,15.631],[107.215,15.728],[107.16,15.759],[107.175,15.848],[107.236,15.856],[107.306,15.899],[107.361,15.912],[107.391,15.936],[107.445,16.01],[107.433,16.056],[107.598,16.056],[107.662,16.091],[107.721,16.017],[107.784,16.072],[107.856,16.087],[107.934,16.079],[108.007,16.086],[108.016,16.003],[108.056,15.978],[108.183,15.997],[108.283,15.99]]]}},{"type":"Feature","properties":{"ma":"51","name":"Quảng Ngãi"},"geometry":{"type":"Polygon","coordinates":[[[108.667,14.596],[108.619,14.64],[108.572,14.784],[108.549,14.825],[108.465,14.858],[108.43,14.894],[108.393,14.964],[108.296,15.048],[108.326,15.086],[108.276,15.178],[108.336,15.285],[108.386,15.317],[108.486,15.325],[108.666,15.383],[108.762,15.396],[108.78,15.325],[108.796,15.396],[108.827,15.429],[108.839,15.375],[108.883,15.336],[108.886,15.287],[108.952,15.25],[108.91,15.21],[108.919,15.057],[108.942,14.979],[109.012,14.822],[109.08,14.729],[109.095,14.668],[109.05,14.683],[108.979,14.672],[108.863,14.68],[108.793,14.666],[108.667,14.596]]]}},{"type":"Feature","properties":{"ma":"52","name":"Bình Định"},"geometry":{"type":"Polygon","coordinates":[[[109.163,13.673],[109.081,13.587],[108.977,13.542],[108.91,13.538],[108.826,13.557],[108.822,13.665],[108.808,13.747],[108.774,13.821],[108.728,13.881],[108.712,13.93],[108.719,13.996],[108.658,14.077],[108.636,14.152],[108.634,14.218],[108.676,14.374],[108.687,14.457],[108.683,14.527],[108.667,14.596],[108.793,14.666],[108.863,14.68],[108.979,14.672],[109.05,14.683],[109.086,14.585],[109.13,14.452],[109.129,14.397],[109.15,14.339],[109.182,14.305],[109.201,14.236],[109.238,14.133],[109.175,14.172],[109.225,14.104],[109.253,14.033],[109.267,13.921],[109.307,13.876],[109.304,13.759],[109.273,13.825],[109.252,13.89],[109.232,13.81],[109.258,13.777],[109.226,13.744],[109.237,13.699],[109.163,13.673]]]}},{"type":"Feature","properties":{"ma":"54","name":"Phú Yên"},"geometry":{"type":"Polygon","coordinates":[[[108.826,13.557],[108.91,13.538],[108.977,13.542],[109.081,13.587],[109.163,13.673],[109.237,13.699],[109.257,13.606],[109.295,13.578],[109.252,13.602],[109.211,13.647],[109.245,13.571],[109.287,13.509],[109.34,13.466],[109.319,13.414],[109.3,13.461],[109.263,13.49],[109.232,13.462],[109.232,13.393],[109.28,13.352],[109.294,13.298],[109.295,13.235],[109.314,13.297],[109.308,13.133],[109.37,13.032],[109.465,12.914],[109.459,12.852],[109.417,12.865],[109.385,12.833],[109.323,12.853],[109.196,12.847],[109.154,12.828],[109.104,12.772],[109.037,12.753],[108.969,12.78],[108.886,12.799],[108.817,12.829],[108.725,12.895],[108.661,12.996],[108.73,13.106],[108.812,13.151],[108.875,13.212],[108.853,13.28],[108.854,13.336],[108.822,13.43],[108.826,13.557]]]}},{"type":"Feature","properties":{"ma":"56","name":"Khánh Hòa"},"geometry":{"type":"MultiPolygon","coordinates":[[[[109.329,12.222],[109.288,12.188],[109.246,12.229],[109.329,12.222]]],[[[109.405,12.57],[109.312,12.614],[109.382,12.624],[109.405,12.57]]],[[[109.385,12.833],[109.377,12.776],[109.421,12.691],[109.472,12.656],[109.451,12.571],[109.403,12.629],[109.403,12.687],[109.376,12.639],[109.342,12.66],[109.385,12.703],[109.363,12.793],[109.304,12.75],[109.205,12.647],[109.205,12.55],[109.232,12.591],[109.233,12.54],[109.298,12.478],[109.345,12.396],[109.298,12.352],[109.216,12.44],[109.184,12.46],[109.15,12.441],[109.177,12.4],[109.214,12.332],[109.241,12.305],[109.204,12.233],[109.225,12.2],[109.226,12.138],[109.214,12.068],[109.249,11.997],[109.287,11.968],[109.266,11.926],[109.277,11.865],[109.225,11.879],[109.219,12.015],[109.176,12.129],[109.177,12.053],[109.212,12.006],[109.199,11.949],[109.156,11.899],[109.132,11.83],[109.197,11.87],[109.204,11.788],[109.115,11.798],[109.086,11.82],[109.066,11.873],[109.033,11.908],[108.905,11.937],[108.81,12.125],[108.778,12.158],[108.719,12.182],[108.707,12.27],[108.682,12.303],[108.668,12.369],[108.666,12.448],[108.776,12.497],[108.835,12.47],[108.88,12.566],[108.907,12.682],[108.971,12.696],[109.037,12.753],[109.104,12.772],[109.154,12.828],[109.196,12.847],[109.323,12.853],[109.385,12.833]]]]}},{"type":"Feature","properties":{"ma":"58","name":"Ninh Thuận"},"geometry":{"type":"Polygon","coordinates":[[[109.204,11.788],[109.244,11.736],[109.192,11.673],[109.136,11.57],[109.067,11.583],[109.043,11.638],[109.028,11.517],[109.019,11.356],[108.952,11.31],[108.906,11.324],[108.869,11.388],[108.772,11.407],[108.763,11.459],[108.715,11.486],[108.697,11.547],[108.62,11.565],[108.609,11.64],[108.675,11.708],[108.647,11.79],[108.637,11.84],[108.682,11.974],[108.693,12.064],[108.684,12.122],[108.719,12.182],[108.778,12.158],[108.81,12.125],[108.878,11.955],[109.033,11.908],[109.066,11.873],[109.086,11.82],[109.115,11.798],[109.204,11.788]]]}},{"type":"Feature","properties":{"ma":"60","name":"Bình Thuận"},"geometry":{"type":"MultiPolygon","coordinates":[[[[108.966,10.517],[108.94,10.504],[108.926,10.53],[108.943,10.551],[108.966,10.517]]],[[[107.587,10.574],[107.517,10.755],[107.562,10.801],[107.59,10.85],[107.588,10.912],[107.557,10.98],[107.477,11.001],[107.431,11.038],[107.511,11.22],[107.57,11.328],[107.61,11.361],[107.691,11.328],[107.756,11.315],[108.01,11.302],[108.053,11.271],[108.053,11.211],[108.152,11.281],[108.25,11.306],[108.335,11.369],[108.315,11.432],[108.319,11.482],[108.387,11.524],[108.514,11.528],[108.58,11.505],[108.62,11.565],[108.697,11.547],[108.715,11.486],[108.763,11.459],[108.772,11.407],[108.869,11.388],[108.906,11.324],[108.857,11.334],[108.787,11.301],[108.758,11.258],[108.729,11.182],[108.656,11.192],[108.577,11.18],[108.514,11.138],[108.472,11.053],[108.369,11.023],[108.344,10.953],[108.3,10.913],[108.259,10.952],[108.107,10.918],[108.065,10.868],[108.035,10.773],[107.999,10.699],[107.937,10.719],[107.883,10.717],[107.823,10.693],[107.782,10.658],[107.667,10.604],[107.587,10.574]]]]}},{"type":"Feature","properties":{"ma":"62","name":"Kon Tum"},"geometry":{"type":"Polygon","coordinates":[[[108.619,14.64],[108.494,14.609],[108.41,14.62],[108.426,14.565],[108.411,14.517],[108.336,14.43],[108.261,14.378],[108.153,14.329],[107.788,14.215],[107.72,14.186],[107.658,14.138],[107.608,14.05],[107.532,13.977],[107.447,13.922],[107.43,13.985],[107.372,13.996],[107.343,14.021],[107.345,14.081],[107.32,14.12],[107.359,14.239],[107.35,14.321],[107.388,14.422],[107.456,14.434],[107.505,14.542],[107.504,14.602],[107.532,14.678],[107.491,14.805],[107.558,14.887],[107.462,14.956],[107.446,15.025],[107.519,15.049],[107.578,15.048],[107.584,15.104],[107.622,15.155],[107.657,15.205],[107.658,15.283],[107.598,15.331],[107.577,15.404],[107.65,15.399],[107.689,15.371],[107.73,15.3],[107.862,15.222],[107.928,15.23],[107.972,15.216],[108.062,15.147],[108.074,15.039],[108.139,14.956],[108.19,14.987],[108.195,15.056],[108.296,15.048],[108.393,14.964],[108.43,14.894],[108.465,14.858],[108.549,14.825],[108.572,14.784],[108.619,14.64]]]}},{"type":"Feature","properties":{"ma":"64","name":"Gia Lai"},"geometry":{"type":"Polygon","coordinates":[[[108.619,14.64],[108.667,14.596],[108.683,14.527],[108.687,14.457],[108.676,14.374],[108.634,14.218],[108.636,14.152],[108.658,14.077],[108.719,13.996],[108.712,13.93],[108.728,13.881],[108.774,13.821],[108.808,13.747],[108.822,13.665],[108.826,13.557],[108.822,13.43],[108.854,13.336],[108.853,13.28],[108.875,13.212],[108.812,13.151],[108.73,13.106],[108.665,13.039],[108.515,13.033],[108.472,13.074],[108.434,13.202],[108.409,13.251],[108.364,13.295],[108.108,13.384],[108.031,13.384],[107.928,13.346],[107.803,13.35],[107.681,13.333],[107.562,13.262],[107.607,13.37],[107.597,13.535],[107.514,13.692],[107.444,13.783],[107.435,13.87],[107.447,13.922],[107.532,13.977],[107.608,14.05],[107.658,14.138],[107.72,14.186],[107.788,14.215],[108.153,14.329],[108.261,14.378],[108.336,14.43],[108.411,14.517],[108.426,14.565],[108.41,14.62],[108.494,14.609],[108.619,14.64]]]}},{"type":"Feature","properties":{"ma":"66","name":"Đắk Lắk"},"geometry":{"type":"Polygon","coordinates":[[[107.54,12.717],[107.535,12.799],[107.494,12.858],[107.467,12.963],[107.461,13.022],[107.562,13.262],[107.681,13.333],[107.803,13.35],[107.928,13.346],[108.031,13.384],[108.108,13.384],[108.364,13.295],[108.409,13.251],[108.434,13.202],[108.472,13.074],[108.515,13.033],[108.661,12.996],[108.725,12.895],[108.817,12.829],[108.886,12.799],[108.969,12.78],[109.037,12.753],[108.971,12.696],[108.907,12.682],[108.875,12.61],[108.855,12.485],[108.776,12.497],[108.676,12.479],[108.668,12.369],[108.682,12.303],[108.604,12.272],[108.516,12.3],[108.426,12.244],[108.336,12.24],[108.254,12.189],[108.236,12.156],[108.162,12.171],[108.118,12.152],[108.128,12.201],[108.076,12.265],[108.029,12.298],[107.978,12.307],[107.941,12.353],[107.929,12.411],[107.978,12.433],[108.005,12.487],[107.976,12.512],[107.922,12.529],[107.875,12.592],[107.863,12.684],[107.843,12.721],[107.54,12.717]]]}},{"type":"Feature","properties":{"ma":"67","name":"Đắk Nông"},"geometry":{"type":"Polygon","coordinates":[[[108.118,12.152],[108.054,12.146],[107.998,12.126],[107.985,12.068],[108.021,12.016],[108.088,11.94],[108.09,11.879],[108.06,11.822],[107.999,11.769],[107.96,11.797],[107.903,11.844],[107.786,11.849],[107.746,11.87],[107.702,11.907],[107.621,11.825],[107.563,11.787],[107.502,11.773],[107.444,11.745],[107.391,11.752],[107.374,11.85],[107.359,11.919],[107.329,11.957],[107.273,11.996],[107.247,12.065],[107.228,12.311],[107.32,12.329],[107.393,12.252],[107.45,12.299],[107.514,12.344],[107.557,12.473],[107.565,12.607],[107.54,12.717],[107.843,12.721],[107.863,12.684],[107.875,12.592],[107.912,12.566],[107.976,12.512],[108.005,12.487],[107.978,12.433],[107.929,12.411],[107.941,12.353],[107.978,12.307],[108.029,12.298],[108.076,12.265],[108.128,12.201],[108.118,12.152]]]}},{"type":"Feature","properties":{"ma":"68","name":"Lâm Đồng"},"geometry":{"type":"Polygon","coordinates":[[[107.308,11.566],[107.282,11.627],[107.327,11.718],[107.391,11.752],[107.444,11.745],[107.502,11.773],[107.563,11.787],[107.621,11.825],[107.702,11.907],[107.746,11.87],[107.786,11.849],[107.875,11.863],[107.914,11.793],[107.999,11.769],[108.06,11.822],[108.09,11.879],[108.088,11.94],[108.021,12.016],[107.985,12.068],[107.998,12.126],[108.054,12.146],[108.118,12.152],[108.162,12.171],[108.236,12.156],[108.254,12.189],[108.336,12.24],[108.426,12.244],[108.484,12.292],[108.604,12.272],[108.682,12.303],[108.707,12.27],[108.719,12.182],[108.684,12.122],[108.693,12.064],[108.682,11.974],[108.637,11.84],[108.647,11.79],[108.684,11.742],[108.609,11.64],[108.62,11.565],[108.58,11.505],[108.514,11.528],[108.387,11.524],[108.319,11.482],[108.315,11.432],[108.335,11.369],[108.25,11.306],[108.152,11.281],[108.092,11.219],[108.053,11.271],[108.01,11.302],[107.756,11.315],[107.691,11.328],[107.61,11.361],[107.526,11.403],[107.449,11.417],[107.448,11.491],[107.399,11.506],[107.374,11.561],[107.308,11.566]]]}},{"type":"Feature","properties":{"ma":"70","name":"Bình Phước"},"geometry":{"type":"Polygon","coordinates":[[[107.391,11.752],[107.327,11.718],[107.285,11.655],[107.308,11.566],[107.234,11.528],[107.14,11.499],[107.104,11.476],[107.084,11.409],[107.046,11.354],[106.964,11.283],[106.813,11.329],[106.718,11.307],[106.688,11.357],[106.648,11.317],[106.614,11.379],[106.62,11.431],[106.522,11.485],[106.464,11.554],[106.471,11.653],[106.434,11.678],[106.399,11.746],[106.421,11.837],[106.394,11.97],[106.443,11.975],[106.474,11.952],[106.505,11.973],[106.638,11.96],[106.702,11.971],[106.749,12.053],[106.804,12.069],[106.916,12.066],[106.978,12.097],[107.153,12.277],[107.228,12.311],[107.247,12.065],[107.273,11.996],[107.329,11.957],[107.359,11.919],[107.374,11.85],[107.401,11.786],[107.391,11.752]]]}},{"type":"Feature","properties":{"ma":"72","name":"Tây Ninh"},"geometry":{"type":"Polygon","coordinates":[[[106.434,11.678],[106.471,11.653],[106.489,11.562],[106.43,11.494],[106.379,11.437],[106.343,11.344],[106.346,11.273],[106.382,11.196],[106.422,11.157],[106.419,11.065],[106.363,10.982],[106.302,11.025],[106.284,10.985],[106.203,10.961],[106.16,11.054],[106.131,11.084],[106.087,11.056],[106.062,11.093],[105.974,11.19],[105.9,11.219],[105.886,11.268],[105.845,11.29],[105.871,11.413],[105.854,11.546],[105.804,11.566],[105.806,11.624],[105.858,11.661],[105.934,11.643],[105.983,11.707],[106.015,11.771],[106.113,11.747],[106.243,11.714],[106.287,11.674],[106.354,11.69],[106.413,11.662],[106.434,11.678]]]}},{"type":"Feature","properties":{"ma":"74","name":"Bình Dương"},"geometry":{"type":"Polygon","coordinates":[[[106.464,11.554],[106.515,11.508],[106.602,11.449],[106.614,11.379],[106.648,11.317],[106.688,11.357],[106.718,11.307],[106.778,11.335],[106.933,11.285],[106.933,11.215],[106.974,11.122],[106.955,11.064],[106.913,11.03],[106.827,11.055],[106.784,11.027],[106.832,10.917],[106.799,10.894],[106.735,10.874],[106.619,11.01],[106.575,11.05],[106.514,11.136],[106.43,11.124],[106.382,11.196],[106.346,11.273],[106.343,11.344],[106.379,11.437],[106.43,11.494],[106.464,11.554]]]}},{"type":"Feature","properties":{"ma":"75","name":"Đồng Nai"},"geometry":{"type":"Polygon","coordinates":[[[107.025,10.635],[107.013,10.673],[107.003,10.626],[106.984,10.567],[106.964,10.605],[106.893,10.67],[106.836,10.661],[106.758,10.705],[106.754,10.773],[106.79,10.754],[106.828,10.771],[106.881,10.763],[106.881,10.813],[106.836,10.887],[106.787,10.98],[106.827,11.055],[106.878,11.027],[106.955,11.064],[106.974,11.122],[106.933,11.215],[106.964,11.283],[107.046,11.354],[107.084,11.409],[107.104,11.476],[107.14,11.499],[107.234,11.528],[107.308,11.566],[107.374,11.561],[107.399,11.506],[107.448,11.491],[107.449,11.417],[107.526,11.403],[107.61,11.361],[107.57,11.328],[107.511,11.22],[107.431,11.038],[107.477,11.001],[107.531,11.001],[107.588,10.912],[107.59,10.85],[107.562,10.801],[107.517,10.755],[107.482,10.798],[107.359,10.691],[107.291,10.708],[107.281,10.768],[107.151,10.728],[107.116,10.666],[107.025,10.635]]]}},{"type":"Feature","properties":{"ma":"77","name":"Bà Rịa - Vũng Tàu"},"geometry":{"type":"MultiPolygon","coordinates":[[[[107.203,10.437],[107.167,10.391],[107.088,10.324],[107.08,10.39],[107.156,10.423],[107.173,10.465],[107.203,10.437]]],[[[107.02,10.512],[107.025,10.635],[107.116,10.666],[107.151,10.728],[107.241,10.77],[107.291,10.708],[107.359,10.691],[107.458,10.801],[107.517,10.755],[107.579,10.615],[107.531,10.513],[107.448,10.474],[107.334,10.454],[107.272,10.378],[107.19,10.405],[107.216,10.435],[107.175,10.477],[107.102,10.49],[107.032,10.474],[107.02,10.512]]],[[[107.003,10.626],[107.012,10.563],[106.997,10.624],[107.003,10.626]]]]}},{"type":"Feature","properties":{"ma":"79","name":"Hồ Chí Minh"},"geometry":{"type":"MultiPolygon","coordinates":[[[[106.948,10.507],[106.921,10.426],[106.978,10.405],[106.888,10.371],[106.875,10.426],[106.893,10.465],[106.928,10.521],[106.948,10.507]]],[[[106.922,10.58],[106.903,10.523],[106.856,10.562],[106.877,10.636],[106.929,10.597],[106.922,10.58]]],[[[107.025,10.501],[106.992,10.481],[107.02,10.512],[107.025,10.501]]],[[[106.363,10.982],[106.419,11.065],[106.43,11.124],[106.514,11.136],[106.575,11.05],[106.619,11.01],[106.712,10.881],[106.799,10.894],[106.881,10.813],[106.881,10.763],[106.828,10.771],[106.79,10.754],[106.754,10.773],[106.758,10.705],[106.836,10.661],[106.893,10.67],[106.964,10.605],[106.984,10.567],[107.012,10.522],[106.973,10.474],[106.937,10.548],[106.943,10.6],[106.882,10.652],[106.829,10.631],[106.773,10.687],[106.737,10.659],[106.772,10.604],[106.751,10.567],[106.786,10.601],[106.752,10.665],[106.848,10.614],[106.84,10.56],[106.868,10.53],[106.875,10.46],[106.832,10.472],[106.86,10.431],[106.792,10.437],[106.759,10.488],[106.751,10.567],[106.743,10.618],[106.711,10.652],[106.646,10.639],[106.611,10.669],[106.523,10.71],[106.494,10.736],[106.522,10.803],[106.525,10.851],[106.477,10.925],[106.363,10.982]]]]}},{"type":"Feature","properties":{"ma":"80","name":"Long An"},"geometry":{"type":"Polygon","coordinates":[[[106.744,10.552],[106.638,10.479],[106.616,10.437],[106.585,10.414],[106.453,10.416],[106.441,10.472],[106.355,10.506],[106.314,10.565],[106.272,10.587],[106.167,10.593],[106.127,10.579],[106.099,10.548],[106.051,10.544],[105.963,10.554],[105.923,10.566],[105.866,10.608],[105.653,10.806],[105.591,10.88],[105.537,10.919],[105.632,10.974],[105.697,11.011],[105.753,11.016],[105.822,10.92],[105.861,10.84],[105.932,10.897],[106.017,10.82],[106.072,10.797],[106.155,10.785],[106.151,10.863],[106.127,10.91],[106.131,10.97],[106.203,10.961],[106.284,10.985],[106.302,11.025],[106.363,10.982],[106.477,10.925],[106.525,10.851],[106.522,10.803],[106.494,10.736],[106.523,10.71],[106.611,10.669],[106.646,10.639],[106.711,10.652],[106.743,10.618],[106.744,10.552]]]}},{"type":"Feature","properties":{"ma":"82","name":"Tiền Giang"},"geometry":{"type":"MultiPolygon","coordinates":[[[[106.739,10.229],[106.69,10.252],[106.56,10.275],[106.703,10.275],[106.747,10.263],[106.739,10.229]]],[[[105.849,10.302],[105.839,10.344],[105.949,10.48],[105.963,10.554],[106.051,10.544],[106.099,10.548],[106.127,10.579],[106.167,10.593],[106.272,10.587],[106.314,10.565],[106.355,10.506],[106.441,10.472],[106.453,10.416],[106.585,10.414],[106.616,10.437],[106.656,10.473],[106.671,10.432],[106.714,10.468],[106.788,10.394],[106.795,10.306],[106.776,10.275],[106.704,10.289],[106.598,10.288],[106.422,10.316],[106.342,10.337],[106.279,10.317],[106.204,10.316],[106.159,10.298],[106.106,10.296],[106.035,10.319],[105.955,10.288],[105.898,10.291],[105.849,10.302]]]]}},{"type":"Feature","properties":{"ma":"83","name":"Bến Tre"},"geometry":{"type":"MultiPolygon","coordinates":[[[[106.544,9.838],[106.497,9.875],[106.422,9.933],[106.486,9.903],[106.544,9.838]]],[[[106.119,10.238],[106.073,10.26],[105.955,10.288],[105.988,10.319],[106.106,10.296],[106.159,10.298],[106.204,10.316],[106.279,10.317],[106.342,10.337],[106.422,10.316],[106.48,10.281],[106.72,10.2],[106.797,10.158],[106.792,10.11],[106.738,10.054],[106.705,10.083],[106.669,10.033],[106.645,9.973],[106.591,9.981],[106.547,10.016],[106.498,10.036],[106.443,10.09],[106.36,10.221],[106.331,10.25],[106.292,10.262],[106.35,10.214],[106.369,10.156],[106.462,10.035],[106.561,9.979],[106.614,9.939],[106.697,9.896],[106.683,9.855],[106.611,9.817],[106.563,9.842],[106.504,9.905],[106.394,9.974],[106.145,10.229],[106.119,10.238]]]]}},{"type":"Feature","properties":{"ma":"84","name":"Trà Vinh"},"geometry":{"type":"Polygon","coordinates":[[[106.246,10.077],[106.283,10.051],[106.312,10.008],[106.389,9.933],[106.475,9.862],[106.519,9.801],[106.575,9.738],[106.576,9.648],[106.544,9.584],[106.485,9.547],[106.398,9.541],[106.338,9.585],[106.25,9.631],[106.065,9.805],[105.996,9.888],[106.063,9.926],[106.137,9.95],[106.188,10.023],[106.206,10.055],[106.246,10.077]]]}},{"type":"Feature","properties":{"ma":"86","name":"Vĩnh Long"},"geometry":{"type":"Polygon","coordinates":[[[106.119,10.238],[106.167,10.181],[106.194,10.121],[106.246,10.077],[106.206,10.055],[106.188,10.023],[106.132,9.987],[106.063,9.926],[105.996,9.888],[105.904,9.977],[105.838,10.004],[105.779,10.065],[105.693,10.124],[105.704,10.167],[105.738,10.183],[105.769,10.163],[105.85,10.138],[105.909,10.172],[105.911,10.221],[105.849,10.302],[105.898,10.291],[105.955,10.288],[106.073,10.26],[106.119,10.238]]]}},{"type":"Feature","properties":{"ma":"87","name":"Đồng Tháp"},"geometry":{"type":"Polygon","coordinates":[[[105.21,10.891],[105.253,10.883],[105.304,10.845],[105.358,10.907],[105.41,10.963],[105.474,10.941],[105.523,10.951],[105.591,10.88],[105.653,10.806],[105.866,10.608],[105.923,10.566],[105.963,10.554],[105.949,10.48],[105.839,10.344],[105.849,10.302],[105.799,10.32],[105.7,10.407],[105.631,10.417],[105.583,10.447],[105.55,10.475],[105.505,10.537],[105.403,10.587],[105.378,10.613],[105.37,10.703],[105.306,10.703],[105.247,10.779],[105.215,10.845],[105.21,10.891]]]}},{"type":"Feature","properties":{"ma":"89","name":"An Giang"},"geometry":{"type":"Polygon","coordinates":[[[104.724,10.521],[104.819,10.517],[104.945,10.641],[105.043,10.691],[105.066,10.747],[105.015,10.849],[105.029,10.914],[105.077,10.947],[105.098,10.914],[105.21,10.891],[105.215,10.845],[105.247,10.779],[105.306,10.703],[105.37,10.703],[105.378,10.613],[105.403,10.587],[105.505,10.537],[105.55,10.475],[105.583,10.447],[105.533,10.402],[105.495,10.334],[105.474,10.275],[105.368,10.235],[105.333,10.273],[105.266,10.235],[105.241,10.199],[104.888,10.382],[104.724,10.521]]]}},{"type":"Feature","properties":{"ma":"91","name":"Kiên Giang"},"geometry":{"type":"MultiPolygon","coordinates":[[[[104.01,10.03],[103.983,10.158],[103.938,10.266],[103.857,10.321],[103.846,10.372],[103.933,10.367],[104.005,10.452],[104.082,10.371],[104.085,10.249],[104.047,10.152],[104.033,10.096],[104.051,10.008],[104.01,10.03]]],[[[104.834,9.535],[104.857,9.738],[104.893,9.851],[104.97,9.854],[104.993,9.888],[105.077,9.944],[105.113,9.857],[105.107,9.952],[105.088,9.997],[105.003,10.092],[104.964,10.107],[104.901,10.097],[104.869,10.116],[104.804,10.207],[104.773,10.227],[104.708,10.222],[104.651,10.145],[104.607,10.154],[104.589,10.26],[104.536,10.31],[104.5,10.371],[104.53,10.4],[104.454,10.38],[104.494,10.428],[104.555,10.518],[104.626,10.533],[104.724,10.521],[104.888,10.382],[105.241,10.199],[105.324,10.142],[105.423,10.043],[105.519,9.952],[105.528,9.908],[105.504,9.835],[105.388,9.727],[105.362,9.683],[105.393,9.642],[105.392,9.586],[105.307,9.605],[105.311,9.515],[105.282,9.472],[105.298,9.425],[105.24,9.417],[105.023,9.528],[104.97,9.531],[104.873,9.507],[104.834,9.535]]]]}},{"type":"Feature","properties":{"ma":"92","name":"Cần Thơ"},"geometry":{"type":"Polygon","coordinates":[[[105.241,10.199],[105.266,10.235],[105.333,10.273],[105.368,10.235],[105.43,10.274],[105.495,10.334],[105.533,10.402],[105.583,10.447],[105.631,10.417],[105.7,10.407],[105.799,10.32],[105.849,10.302],[105.882,10.242],[105.909,10.172],[105.85,10.138],[105.769,10.163],[105.738,10.183],[105.704,10.167],[105.693,10.124],[105.631,10.102],[105.525,10.079],[105.423,10.043],[105.324,10.142],[105.241,10.199]]]}},{"type":"Feature","properties":{"ma":"93","name":"Hậu Giang"},"geometry":{"type":"Polygon","coordinates":[[[105.838,10.004],[105.902,9.917],[105.82,9.719],[105.674,9.64],[105.569,9.611],[105.462,9.588],[105.392,9.586],[105.393,9.642],[105.362,9.683],[105.388,9.727],[105.504,9.835],[105.528,9.908],[105.519,9.952],[105.423,10.043],[105.525,10.079],[105.631,10.102],[105.693,10.124],[105.779,10.065],[105.838,10.004]]]}},{"type":"Feature","properties":{"ma":"94","name":"Sóc Trăng"},"geometry":{"type":"MultiPolygon","coordinates":[[[[106.669,8.753],[106.655,8.698],[106.602,8.695],[106.559,8.681],[106.598,8.733],[106.658,8.767],[106.669,8.753]]],[[[106.107,9.747],[106.155,9.679],[106.21,9.621],[106.292,9.587],[106.284,9.543],[106.25,9.56],[106.198,9.61],[106.226,9.565],[106.126,9.672],[106.107,9.747]]],[[[105.902,9.917],[106.073,9.749],[106.093,9.693],[106.197,9.541],[106.205,9.458],[106.17,9.418],[106.193,9.369],[106.018,9.315],[105.868,9.255],[105.833,9.364],[105.801,9.39],[105.693,9.384],[105.599,9.418],[105.577,9.459],[105.569,9.611],[105.674,9.64],[105.792,9.713],[105.902,9.917]]]]}},{"type":"Feature","properties":{"ma":"95","name":"Bạc Liêu"},"geometry":{"type":"Polygon","coordinates":[[[105.868,9.255],[105.76,9.21],[105.538,9.129],[105.443,9.042],[105.426,9.008],[105.398,9.058],[105.351,9.073],[105.331,9.103],[105.31,9.196],[105.282,9.236],[105.317,9.297],[105.287,9.331],[105.305,9.372],[105.28,9.406],[105.282,9.472],[105.311,9.515],[105.293,9.588],[105.392,9.586],[105.462,9.588],[105.569,9.611],[105.577,9.459],[105.599,9.418],[105.693,9.384],[105.801,9.39],[105.833,9.364],[105.868,9.255]]]}},{"type":"Feature","properties":{"ma":"96","name":"Cà Mau"},"geometry":{"type":"Polygon","coordinates":[[[105.426,9.008],[105.333,8.84],[105.259,8.761],[105.184,8.74],[105.101,8.634],[104.856,8.566],[104.752,8.59],[104.72,8.613],[104.835,8.661],[104.912,8.686],[104.963,8.72],[104.876,8.699],[104.853,8.729],[104.929,8.747],[104.922,8.81],[104.816,8.772],[104.775,8.818],[104.812,8.937],[104.808,9.046],[104.819,9.193],[104.834,9.535],[104.873,9.507],[104.97,9.531],[105.023,9.528],[105.24,9.417],[105.28,9.406],[105.305,9.372],[105.287,9.331],[105.317,9.297],[105.282,9.236],[105.31,9.196],[105.331,9.103],[105.351,9.073],[105.398,9.058],[105.426,9.008]]]}}]}